{
    "links": {
        "self": "http://www.neowsapp.com/rest/v1/neo/3445539?api_key=iIulBulltgU6a56xZRHN4H3l9WmuAYTsLGpBGhQ2"
    },
    "id": "3445539",
    "neo_reference_id": "3445539",
    "name": "(2009 BF81)",
    "designation": "2009 BF81",
    "nasa_jpl_url": "http://ssd.jpl.nasa.gov/sbdb.cgi?sstr=3445539",
    "absolute_magnitude_h": 25.2,
    "estimated_diameter": {
        "kilometers": {
            "estimated_diameter_min": 0.0242412481,
            "estimated_diameter_max": 0.0542050786
        },
        "meters": {
            "estimated_diameter_min": 24.2412481101,
            "estimated_diameter_max": 54.2050786336
        },
        "miles": {
            "estimated_diameter_min": 0.0150628086,
            "estimated_diameter_max": 0.0336814639
        },
        "feet": {
            "estimated_diameter_min": 79.5316564495,
            "estimated_diameter_max": 177.8381901842
        }
    },
    "is_potentially_hazardous_asteroid": false,
    "close_approach_data": [
        {
            "close_approach_date": "2006-02-21",
            "close_approach_date_full": "2006-Feb-21 12:22",
            "epoch_date_close_approach": 1140524520000,
            "relative_velocity": {
                "kilometers_per_second": "21.2106726853",
                "kilometers_per_hour": "76358.421667139",
                "miles_per_hour": "47446.1537297843"
            },
            "miss_distance": {
                "astronomical": "0.3724960876",
                "lunar": "144.9009780764",
                "kilometers": "55724621.288293412",
                "miles": "34625674.0547046056"
            },
            "orbiting_body": "Earth"
        },
        {
            "close_approach_date": "2009-01-25",
            "close_approach_date_full": "2009-Jan-25 05:49",
            "epoch_date_close_approach": 1232862540000,
            "relative_velocity": {
                "kilometers_per_second": "11.2156863851",
                "kilometers_per_hour": "40376.4709864194",
                "miles_per_hour": "25088.3688748671"
            },
            "miss_distance": {
                "astronomical": "0.0230117611",
                "lunar": "8.9515750679",
                "kilometers": "3442510.445508857",
                "miles": "2139076.8005299466"
            },
            "orbiting_body": "Earth"
        },
        {
            "close_approach_date": "2161-10-17",
            "close_approach_date_full": "2161-Oct-17 06:17",
            "epoch_date_close_approach": 6052429020000,
            "relative_velocity": {
                "kilometers_per_second": "20.4692422167",
                "kilometers_per_hour": "73689.2719802939",
                "miles_per_hour": "45787.6479146443"
            },
            "miss_distance": {
                "astronomical": "0.3647176628",
                "lunar": "141.8751708292",
                "kilometers": "54560985.506258236",
                "miles": "33902624.3080102168"
            },
            "orbiting_body": "Earth"
        }
    ],
    "orbital_data": {
        "orbit_id": "11",
        "orbit_determination_date": "2017-04-06 09:01:29",
        "first_observation_date": "2009-01-31",
        "last_observation_date": "2009-02-20",
        "data_arc_in_days": 20,
        "observations_used": 43,
        "orbit_uncertainty": "7",
        "minimum_orbit_intersection": ".00566633",
        "jupiter_tisserand_invariant": "3.570",
        "epoch_osculation": "2459000.5",
        "eccentricity": ".5502609201306193",
        "semi_major_axis": "2.05520014494174",
        "inclination": "8.583458077427331",
        "ascending_node_longitude": "120.4889762214841",
        "orbital_period": "1076.1668492374",
        "perihelion_distance": ".9243038221335158",
        "perihelion_argument": "328.6688008298311",
        "aphelion_distance": "3.186096467749964",
        "perihelion_time": "2459140.629380255072",
        "mean_anomaly": "313.1238330491469",
        "mean_motion": ".3345206184850474",
        "equinox": "J2000",
        "orbit_class": {
            "orbit_class_type": "APO",
            "orbit_class_description": "Near-Earth asteroid orbits which cross the Earth’s orbit similar to that of 1862 Apollo",
            "orbit_class_range": "a (semi-major axis) > 1.0 AU; q (perihelion) < 1.017 AU"
        }
    },
    "is_sentry_object": false
}